{
  "type": "FeatureCollection",
  "features": [
    {
      "type": "Feature",
      "properties": {
        "norad_id": 25590,
        "name": "COSMOS 2361",
        "group": "musson",
        "lat": 27.502625572147476,
        "lon": -23.157223694047737,
        "alt_km": 1008.4781723652559,
        "timestamp": "2025-12-27T12:55:14.775050+00:00",
        "meta_object_name": "COSMOS 2361",
        "meta_object_id": "1998-076A",
        "meta_epoch": "2025-12-27T04:05:37.857120",
        "meta_mean_motion": 13.73219116,
        "meta_eccentricity": 0.00304131,
        "meta_inclination": 82.9347,
        "meta_ra_of_asc_node": 333.4127,
        "meta_arg_of_pericenter": 223.8805,
        "meta_mean_anomaly": 146.6858,
        "meta_ephemeris_type": 0,
        "meta_classification_type": "U",
        "meta_norad_cat_id": 25590,
        "meta_element_set_no": 999,
        "meta_rev_at_epoch": 35309,
        "meta_bstar": 6.9640842e-05,
        "meta_mean_motion_dot": 8e-07,
        "meta_mean_motion_ddot": 0,
        "tle_line1": "1 25590U 98076A   25361.17057705  .00000080  00000+0  69641-4 0  9997",
        "tle_line2": "2 25590  82.9347 333.4127 0030413 223.8805 146.6858 13.73219116353090"
      },
      "geometry": {
        "type": "Point",
        "coordinates": [
          -23.157223694047737,
          27.502625572147476
        ]
      }
    },
    {
      "type": "Feature",
      "properties": {
        "norad_id": 26818,
        "name": "COSMOS 2378",
        "group": "musson",
        "lat": 30.192373776393122,
        "lon": 164.60878662591642,
        "alt_km": 959.3083778566515,
        "timestamp": "2025-12-27T12:55:14.775071+00:00",
        "meta_object_name": "COSMOS 2378",
        "meta_object_id": "2001-023A",
        "meta_epoch": "2025-12-27T05:15:28.941408",
        "meta_mean_motion": 13.74143199,
        "meta_eccentricity": 0.00333176,
        "meta_inclination": 82.9272,
        "meta_ra_of_asc_node": 348.9878,
        "meta_arg_of_pericenter": 164.4002,
        "meta_mean_anomaly": 206.5845,
        "meta_ephemeris_type": 0,
        "meta_classification_type": "U",
        "meta_norad_cat_id": 26818,
        "meta_element_set_no": 999,
        "meta_rev_at_epoch": 23122,
        "meta_bstar": 5.547045e-05,
        "meta_mean_motion_dot": 6.8e-07,
        "meta_mean_motion_ddot": 0,
        "tle_line1": "1 26818U 01023A   25361.21908497  .00000068  00000+0  55470-4 0  9996",
        "tle_line2": "2 26818  82.9272 348.9878 0033317 164.4002 206.5845 13.74143199231220"
      },
      "geometry": {
        "type": "Point",
        "coordinates": [
          164.60878662591642,
          30.192373776393122
        ]
      }
    },
    {
      "type": "Feature",
      "properties": {
        "norad_id": 27436,
        "name": "COSMOS 2389",
        "group": "musson",
        "lat": 50.01161873934129,
        "lon": -55.487229620430846,
        "alt_km": 946.6530712652366,
        "timestamp": "2025-12-27T12:55:14.775085+00:00",
        "meta_object_name": "COSMOS 2389",
        "meta_object_id": "2002-026A",
        "meta_epoch": "2025-12-27T07:59:33.050688",
        "meta_mean_motion": 13.75156231,
        "meta_eccentricity": 0.00469567,
        "meta_inclination": 82.9514,
        "meta_ra_of_asc_node": 296.1823,
        "meta_arg_of_pericenter": 20.8637,
        "meta_mean_anomaly": 93.4735,
        "meta_ephemeris_type": 0,
        "meta_classification_type": "U",
        "meta_norad_cat_id": 27436,
        "meta_element_set_no": 999,
        "meta_rev_at_epoch": 18349,
        "meta_bstar": 6.5448532e-05,
        "meta_mean_motion_dot": 7.8e-07,
        "meta_mean_motion_ddot": 0,
        "tle_line1": "1 27436U 02026A   25361.33302142  .00000078  00000+0  65449-4 0  9993",
        "tle_line2": "2 27436  82.9514 296.1823 0046956  20.8637  93.4735 13.75156231183490"
      },
      "geometry": {
        "type": "Point",
        "coordinates": [
          -55.487229620430846,
          50.01161873934129
        ]
      }
    },
    {
      "type": "Feature",
      "properties": {
        "norad_id": 27818,
        "name": "COSMOS 2398",
        "group": "musson",
        "lat": -35.69223358424074,
        "lon": 86.8950574511045,
        "alt_km": 1016.6064561767535,
        "timestamp": "2025-12-27T12:55:14.775096+00:00",
        "meta_object_name": "COSMOS 2398",
        "meta_object_id": "2003-023A",
        "meta_epoch": "2025-12-27T05:25:12.592416",
        "meta_mean_motion": 13.72387353,
        "meta_eccentricity": 0.00326765,
        "meta_inclination": 82.9481,
        "meta_ra_of_asc_node": 262.0239,
        "meta_arg_of_pericenter": 73.2154,
        "meta_mean_anomaly": 39.2775,
        "meta_ephemeris_type": 0,
        "meta_classification_type": "U",
        "meta_norad_cat_id": 27818,
        "meta_element_set_no": 999,
        "meta_rev_at_epoch": 13015,
        "meta_bstar": 6.3402989e-05,
        "meta_mean_motion_dot": 7.4e-07,
        "meta_mean_motion_ddot": 0,
        "tle_line1": "1 27818U 03023A   25361.22584019  .00000074  00000+0  63403-4 0  9992",
        "tle_line2": "2 27818  82.9481 262.0239 0032676  73.2154  39.2775 13.72387353130155"
      },
      "geometry": {
        "type": "Point",
        "coordinates": [
          86.8950574511045,
          -35.69223358424074
        ]
      }
    },
    {
      "type": "Feature",
      "properties": {
        "norad_id": 28380,
        "name": "COSMOS 2407",
        "group": "musson",
        "lat": -77.78827838402836,
        "lon": 56.75680907390089,
        "alt_km": 996.2493594315547,
        "timestamp": "2025-12-27T12:55:14.775107+00:00",
        "meta_object_name": "COSMOS 2407",
        "meta_object_id": "2004-028A",
        "meta_epoch": "2025-12-27T07:15:48.477024",
        "meta_mean_motion": 13.7631525,
        "meta_eccentricity": 0.00395925,
        "meta_inclination": 82.9593,
        "meta_ra_of_asc_node": 202.11,
        "meta_arg_of_pericenter": 14.9644,
        "meta_mean_anomaly": 158.1515,
        "meta_ephemeris_type": 0,
        "meta_classification_type": "U",
        "meta_norad_cat_id": 28380,
        "meta_element_set_no": 999,
        "meta_rev_at_epoch": 7623,
        "meta_bstar": 4.7748254e-05,
        "meta_mean_motion_dot": 6.2e-07,
        "meta_mean_motion_ddot": 0,
        "tle_line1": "1 28380U 04028A   25361.30264441  .00000062  00000+0  47748-4 0  9997",
        "tle_line2": "2 28380  82.9593 202.1100 0039592  14.9644 158.1515 13.76315250 76238"
      },
      "geometry": {
        "type": "Point",
        "coordinates": [
          56.75680907390089,
          -77.78827838402836
        ]
      }
    },
    {
      "type": "Feature",
      "properties": {
        "norad_id": 28521,
        "name": "COSMOS 2414",
        "group": "musson",
        "lat": 59.365971014395846,
        "lon": -174.46741891512275,
        "alt_km": 906.4664856707786,
        "timestamp": "2025-12-27T12:55:14.775119+00:00",
        "meta_object_name": "COSMOS 2414",
        "meta_object_id": "2005-002A",
        "meta_epoch": "2025-12-27T05:42:43.739136",
        "meta_mean_motion": 13.879048,
        "meta_eccentricity": 0.00414502,
        "meta_inclination": 82.949,
        "meta_ra_of_asc_node": 173.6965,
        "meta_arg_of_pericenter": 99.5469,
        "meta_mean_anomaly": 261.0382,
        "meta_ephemeris_type": 0,
        "meta_classification_type": "U",
        "meta_norad_cat_id": 28521,
        "meta_element_set_no": 999,
        "meta_rev_at_epoch": 5996,
        "meta_bstar": 5.8432378e-05,
        "meta_mean_motion_dot": 8.6e-07,
        "meta_mean_motion_ddot": 0,
        "tle_line1": "1 28521U 05002A   25361.23800624  .00000086  00000+0  58432-4 0  9996",
        "tle_line2": "2 28521  82.9490 173.6965 0041450  99.5469 261.0382 13.87904800 59966"
      },
      "geometry": {
        "type": "Point",
        "coordinates": [
          -174.46741891512275,
          59.365971014395846
        ]
      }
    },
    {
      "type": "Feature",
      "properties": {
        "norad_id": 32052,
        "name": "COSMOS 2429",
        "group": "musson",
        "lat": -54.95044226246444,
        "lon": 162.51373728758412,
        "alt_km": 1002.8451704756062,
        "timestamp": "2025-12-27T12:55:14.775140+00:00",
        "meta_object_name": "COSMOS 2429",
        "meta_object_id": "2007-038A",
        "meta_epoch": "2025-12-27T06:32:18.000384",
        "meta_mean_motion": 13.75150856,
        "meta_eccentricity": 0.00383593,
        "meta_inclination": 82.981,
        "meta_ra_of_asc_node": 332.595,
        "meta_arg_of_pericenter": 357.7669,
        "meta_mean_anomaly": 2.331,
        "meta_ephemeris_type": 0,
        "meta_classification_type": "U",
        "meta_norad_cat_id": 32052,
        "meta_element_set_no": 999,
        "meta_rev_at_epoch": 91802,
        "meta_bstar": 6.6146117e-05,
        "meta_mean_motion_dot": 7.9e-07,
        "meta_mean_motion_ddot": 0,
        "tle_line1": "1 32052U 07038A   25361.27243056  .00000079  00000+0  66146-4 0  9998",
        "tle_line2": "2 32052  82.9810 332.5950 0038359 357.7669   2.3310 13.75150856918020"
      },
      "geometry": {
        "type": "Point",
        "coordinates": [
          162.51373728758412,
          -54.95044226246444
        ]
      }
    },
    {
      "type": "Feature",
      "properties": {
        "norad_id": 35635,
        "name": "COSMOS 2454",
        "group": "musson",
        "lat": -38.16296018550675,
        "lon": -16.997167458430873,
        "alt_km": 949.75975951912,
        "timestamp": "2025-12-27T12:55:14.775167+00:00",
        "meta_object_name": "COSMOS 2454",
        "meta_object_id": "2009-039A",
        "meta_epoch": "2025-12-27T04:04:13.625760",
        "meta_mean_motion": 13.8993039,
        "meta_eccentricity": 0.00198913,
        "meta_inclination": 82.9559,
        "meta_ra_of_asc_node": 157.7063,
        "meta_arg_of_pericenter": 34.8041,
        "meta_mean_anomaly": 139.4805,
        "meta_ephemeris_type": 0,
        "meta_classification_type": "U",
        "meta_norad_cat_id": 35635,
        "meta_element_set_no": 999,
        "meta_rev_at_epoch": 83350,
        "meta_bstar": 5.8932066e-05,
        "meta_mean_motion_dot": 8.9e-07,
        "meta_mean_motion_ddot": 0,
        "tle_line1": "1 35635U 09039A   25361.16960215  .00000089  00000+0  58932-4 0  9997",
        "tle_line2": "2 35635  82.9559 157.7063 0019891  34.8041 139.4805 13.89930390833503"
      },
      "geometry": {
        "type": "Point",
        "coordinates": [
          -16.997167458430873,
          -38.16296018550675
        ]
      }
    },
    {
      "type": "Feature",
      "properties": {
        "norad_id": 36519,
        "name": "COSMOS 2463",
        "group": "musson",
        "lat": 6.2778196877304335,
        "lon": 16.61571383372182,
        "alt_km": 1008.8411279509846,
        "timestamp": "2025-12-27T12:55:14.775188+00:00",
        "meta_object_name": "COSMOS 2463",
        "meta_object_id": "2010-017A",
        "meta_epoch": "2025-12-27T04:29:02.150880",
        "meta_mean_motion": 13.71650374,
        "meta_eccentricity": 0.00348574,
        "meta_inclination": 82.9602,
        "meta_ra_of_asc_node": 16.0951,
        "meta_arg_of_pericenter": 246.474,
        "meta_mean_anomaly": 184.7384,
        "meta_ephemeris_type": 0,
        "meta_classification_type": "U",
        "meta_norad_cat_id": 36519,
        "meta_element_set_no": 999,
        "meta_rev_at_epoch": 78435,
        "meta_bstar": 3.7871441e-05,
        "meta_mean_motion_dot": 4.9e-07,
        "meta_mean_motion_ddot": 0,
        "tle_line1": "1 36519U 10017A   25361.18683045  .00000049  00000+0  37871-4 0  9997",
        "tle_line2": "2 36519  82.9602  16.0951 0034857 246.4740 184.7384 13.71650374784358"
      },
      "geometry": {
        "type": "Point",
        "coordinates": [
          16.61571383372182,
          6.2778196877304335
        ]
      }
    }
  ]
}